49P/Arend-Rigaux,e,19.0588,118.7927,332.9355,3.570024,0.1461159,0.59906713,351.4345,02/11.0/2025,2000,g 11.3,4.4
# From MPEC 2025-CE3
50P/Arend,e,19.0994,355.1469,49.3256,4.087794,0.1192534,0.52980980,32.7133,02/11.0/2025,2000,g  9.5,6.0
# From MPEC 2025-CE3
60P/Tsuchinshan,e,3.5798,267.3974,216.9343,3.530125,0.1486000,0.53386442,336.2774,02/11.0/2025,2000,g 11.5,6.0
# From MPEC 2025-CE3
62P/Tsuchinshan,e,4.7373,68.6663,47.3224,3.370689,0.1592671,0.62469760,65.9090,02/11.0/2025,2000,g  8.0,10.0
# From MPEC 2025-CE3
74P/Smirnova-Chernykh,e,6.2984,53.5008,79.5221,4.986667,0.0885092,0.03637155,302.6479,02/11.0/2025,2000,g  5.0,6.0
# From MPEC 2025-CE3
88P/Howell,e,4.3820,56.6681,235.8889,3.108087,0.1798723,0.56318442,287.9036,02/11.0/2025,2000,g 11.0,6.0
# From MPEC 2025-CE3
89P/Russell,e,12.0721,41.3443,250.4080,3.750605,0.1356914,0.40754971,43.6116,02/11.0/2025,2000,g 11.5,6.0
# From MPEC 2025-CE3
103P/Hartley,e,13.6095,219.7531,181.3227,3.475369,0.1521258,0.69360294,74.1654,02/11.0/2025,2000,g  8.5,8.0
# From MPEC 2025-CE3
130P/McNaught-Hughes,e,6.0631,70.1803,246.1985,3.383816,0.1583412,0.46105300,47.8139,02/11.0/2025,2000,g 10.0,6.0
# From MPEC 2025-CE3
136P/Mueller,e,9.4275,137.4229,225.2956,4.185119,0.1151178,0.29311679,4.4487,02/11.0/2025,2000,g 11.0,4.0
# From MPEC 2025-CE3
146P/Shoemaker-LINEAR,e,23.1202,53.3704,317.0689,4.027422,0.1219448,0.64758365,23.1163,02/11.0/2025,2000,g 15.0,4.0
# From MPEC 2025-CE3
154P/Brewington,e,17.6359,342.9991,47.9468,4.797942,0.0937824,0.67637460,22.7657,02/11.0/2025,2000,g  2.5,12.0
# From MPEC 2025-CE3
158P/Kowal-LINEAR,e,7.4079,124.8084,226.1691,5.654356,0.0733043,0.11807205,67.2308,02/11.0/2025,2000,g  9.0,4.0
# From MPEC 2025-CE3
170P/Christensen,e,10.1255,142.6451,224.8444,4.196960,0.1146310,0.30523265,76.4421,02/11.0/2025,2000,g 12.0,4.0
# From MPEC 2025-CE3
172P/Yeung,e,11.2239,30.8821,208.9195,4.222695,0.1135846,0.20475747,329.9374,02/11.0/2025,2000,g 13.0,4.0
# From MPEC 2025-CE3
195P/Hill,e,36.4194,243.1054,250.5318,6.450113,0.0601663,0.31151347,349.4665,02/11.0/2025,2000,g  8.5,4.0
# From MPEC 2025-CE3
208P/McMillan,e,4.4123,36.3356,310.7156,4.038799,0.1214299,0.37387519,20.7598,02/11.0/2025,2000,g 12.5,4.0
# From MPEC 2025-CE3
217P/LINEAR,e,12.8654,125.3716,247.0351,3.944533,0.1258087,0.68909585,347.0490,02/11.0/2025,2000,g 12.0,4.0
# From MPEC 2025-CE3
219P/LINEAR,e,11.5340,230.9490,107.7925,3.652168,0.1412141,0.35498059,51.1984,02/11.0/2025,2000,g 11.0,4.0
# From MPEC 2025-CE3
229P/Gibbs,e,26.0973,157.8839,224.2105,3.922916,0.1268500,0.37791946,357.1121,02/11.0/2025,2000,g 13.0,4.0
# From MPEC 2025-CE3
235P/LINEAR,e,9.8130,200.2105,352.0711,3.449525,0.1538385,0.42644626,311.6286,02/11.0/2025,2000,g 12.0,4.0
# From MPEC 2025-CE3
237P/LINEAR,e,14.0160,245.3544,25.4764,3.515229,0.1495456,0.43322109,95.4554,02/11.0/2025,2000,g 14.5,2.0
# From MPEC 2025-CE3
242P/Spahr,e,32.4267,180.2859,244.9255,5.537269,0.0756416,0.28274898,3.7647,02/11.0/2025,2000,g  8.0,4.0
# From MPEC 2025-CE3
253P/PANSTARRS,e,4.9440,146.8576,230.8331,3.463731,0.1528931,0.41485237,17.2755,02/11.0/2025,2000,g 14.5,4.0
# From MPEC 2025-CE3
268P/Bernardi,e,15.6612,125.6320,0.0131,4.591728,0.1001705,0.47456863,5.4621,02/11.0/2025,2000,g 14.0,4.0
# From MPEC 2025-CE3
276P/Vorobjov,e,14.7932,211.3236,199.2788,5.356059,0.0795126,0.27209752,4.9473,02/11.0/2025,2000,g 11.5,4.0
# From MPEC 2025-CE3
294P/LINEAR,e,17.7403,309.6052,237.5678,3.191668,0.1728533,0.60111407,328.6834,02/11.0/2025,2000,g 15.5,4.0
# From MPEC 2025-CE3
305P/Skiff,e,11.6715,240.1045,147.4204,4.637379,0.0986950,0.69409069,8.4726,02/11.0/2025,2000,g 18.0,4.0
# From MPEC 2025-CE3
323P/SOHO,e,5.2104,323.9530,353.3212,2.440231,0.2585577,0.98344287,0.0000,03/14.2305/2025,2000,g 20.0,4.0
# From MPEC 2025-CE3
333P/LINEAR,e,132.0224,115.7064,26.0172,4.220290,0.1136817,0.73628723,8.3786,02/11.0/2025,2000,g 15.0,4.0
# From MPEC 2025-CE3
338P/McNaught,e,25.3792,9.7785,4.6173,3.895380,0.1281974,0.41265737,24.5717,02/11.0/2025,2000,g 12.0,4.0
# From MPEC 2025-CE3
382P/Larson,e,8.2612,170.6674,162.2347,5.900137,0.0687719,0.26700172,82.1741,02/11.0/2025,2000,g  8.0,4.0
# From MPEC 2025-CE3
384P/Kowalski,e,7.2836,354.1901,37.7119,2.898084,0.1997734,0.61629700,28.9403,02/11.0/2025,2000,g 19.5,4.0
# From MPEC 2025-CE3
404P/Bressi,e,9.8042,260.0417,169.0992,4.720590,0.0960970,0.12454194,44.9023,02/11.0/2025,2000,g 10.0,4.0
# From MPEC 2025-CE3
408P/Novichonok-Gerke,e,19.3533,189.4497,226.6702,4.745286,0.0953477,0.26852593,81.8986,02/11.0/2025,2000,g 11.0,4.0
# From MPEC 2025-CE3
450P/LONEOS,e,10.6147,124.4795,22.5695,7.956146,0.0439188,0.31392639,328.6853,02/11.0/2025,2000,g  6.5,4.0
# From MPEC 2025-CE3
456P/PANSTARRS,e,16.9670,243.1526,233.0397,3.171624,0.1744944,0.11646705,348.9861,02/11.0/2025,2000,g 13.5,4.0
# From MPEC 2025-CE3
470P/PANSTARRS,e,8.8443,246.1735,151.7479,4.466475,0.1044135,0.38957012,44.0612,02/11.0/2025,2000,g 15.5,4.0
# From MPEC 2025-CE3
472P/NEAT-LINEAR,e,10.8244,205.8961,218.8777,7.799667,0.0452470,0.56556087,9.5636,02/11.0/2025,2000,g 10.5,4.0
# From MPEC 2025-CE3
476P/PANSTARRS,e,19.0054,57.0530,46.7335,4.777201,0.0943939,0.34619430,11.0898,02/11.0/2025,2000,g 12.5,4.0
# From MPEC 2025-CE3
487P/SidingSpring,e,39.3671,49.2085,0.8574,5.165287,0.0839581,0.64863107,9.5180,02/11.0/2025,2000,g 13.5,4.0
# From MPEC 2025-CE3
492P/LINEAR,e,11.4004,11.3089,40.9929,5.762989,0.0712414,0.69077104,14.6411,02/11.0/2025,2000,g 15.0,4.0
# From MPEC 2025-CE3
496P/Hill,e,14.8146,63.5879,42.2484,6.103179,0.0653687,0.73439303,358.2164,02/11.0/2025,2000,g 14.0,4.0
# From MPC107687
1I/`Oumuamua,h,09/09.4886/2017,122.6778,24.5997,241.6845,1.199252,0.255240,2000,23.0,2.0
# From MPEC 2023-L37
2I/Borisov,h,12/08.5548/2019,44.0527,308.1480,209.1251,3.356633,2.006548,2000,11.0,4.0
